GLOBALSTAR M075 [+]     
1 37192U 10054E   24104.04047125 -.00000100  00000+0  20792-4 0  9991
2 37192  51.9964  51.2368 0000594  64.4058  15.6072 12.62272177621689
GLOBALSTAR M073 [+]     
1 37193U 10054F   24104.05892295 -.00000074  00000+0  16389-3 0  9995
2 37193  52.0070 324.6754 0000872  94.2654  69.8890 12.62263619623512
GLOBALSTAR M083 [+]     
1 37739U 11033A   24104.60654184 -.00000055  00000+0  27034-3 0  9991
2 37739  51.9850 272.3251 0000722  85.1266 349.2023 12.62268506592603
GLOBALSTAR M088 [+]     
1 37740U 11033B   24104.50695194 -.00000078  00000+0  14546-3 0  9997
2 37740  51.9723 178.4810 0000441  91.8273  10.2927 12.62266923588133
GLOBALSTAR M091 [+]     
1 37741U 11033C   24104.44221521 -.00000094  00000+0  53308-4 0  9998
2 37741  51.9978 141.4642 0000405  56.4830  51.3165 12.62261546588917
GLOBALSTAR M085 [+]     
1 37742U 11033D   24104.44171295 -.00000112  00000+0 -45868-4 0  9995
2 37742  51.9854  92.8827 0000522  47.6794 117.4386 12.62269493589421
GLOBALSTAR M081 [+]     
1 37743U 11033E   24104.38509403 -.00000107  00000+0 -20542-4 0  9991
2 37743  51.9945  95.5766 0000630  61.0987  86.6755 12.62264118589560
GLOBALSTAR M089 [+]     
1 37744U 11033F   24104.26648597 -.00000095  00000+0  49988-4 0  9997
2 37744  51.9947  50.2472 0000636 103.8747  43.7971 12.62261791590391
